{"type":"FeatureCollection","features":[{"type":"Feature","geometry":{"type":"Polygon","coordinates":[[[-122.40545,37.70835],[-122.39317,37.7084],[-122.39147,37.7097],[-122.39062,37.70921],[-122.38974,37.70962],[-122.38805,37.70868],[-122.3874,37.70935],[-122.38599,37.71],[-122.38454,37.7093],[-122.3803,37.70875],[-122.37945,37.70843],[-122.37617,37.70839],[-122.37473,37.7085],[-122.3746,37.70904],[-122.376,37.70969],[-122.37672,37.70902],[-122.37826,37.70876],[-122.37904,37.71003],[-122.38005,37.71062],[-122.38008,37.71143],[-122.37889,37.71309],[-122.37733,37.71436],[-122.37616,37.71591],[-122.37682,37.7166],[-122.38063,37.71877],[-122.3832,37.72009],[-122.38331,37.72073],[-122.38283,37.72188],[-122.38474,37.72305],[-122.38688,37.72413],[-122.38619,37.72447],[-122.38504,37.72411],[-122.38237,37.72231],[-122.3805,37.72184],[-122.37857,37.72396],[-122.37708,37.72424],[-122.37596,37.72272],[-122.37556,37.72045],[-122.37424,37.71951],[-122.37398,37.71889],[-122.37171,37.71899],[-122.3701,37.7185],[-122.36966,37.71791],[-122.36773,37.71765],[-122.36636,37.71682],[-122.3656,37.71602],[-122.36397,37.71658],[-122.36004,37.7143],[-122.35992,37.71443],[-122.36387,37.71673],[-122.36265,37.71802],[-122.35872,37.71573],[-122.35858,37.71588],[-122.36252,37.71815],[-122.36366,37.71905],[-122.36271,37.72007],[-122.36003,37.7185],[-122.35922,37.71941],[-122.36381,37.7221],[-122.363,37.72298],[-122.36024,37.72136],[-122.35998,37.72163],[-122.36275,37.72326],[-122.36237,37.72368],[-122.36505,37.72523],[-122.3649,37.7257],[-122.36152,37.72377],[-122.35784,37.72462],[-122.35796,37.72494],[-122.36126,37.72417],[-122.36164,37.72522],[-122.35801,37.72604],[-122.3577,37.72628],[-122.35697,37.72871],[-122.35996,37.72815],[-122.36002,37.72846],[-122.35788,37.72895],[-122.35773,37.72944],[-122.36183,37.72845],[-122.36196,37.72881],[-122.35897,37.72952],[-122.35991,37.73033],[-122.36191,37.73009],[-122.36257,37.73064],[-122.36511,37.73207],[-122.36623,37.73224],[-122.36773,37.732],[-122.36954,37.73243],[-122.37071,37.73311],[-122.37191,37.73421],[-122.37252,37.734],[-122.37379,37.73277],[-122.37439,37.73254],[-122.37565,37.73293],[-122.37491,37.73436],[-122.37488,37.73498],[-122.37574,37.73583],[-122.3743,37.73778],[-122.37354,37.73718],[-122.37135,37.73706],[-122.36859,37.73795],[-122.36849,37.73825],[-122.3712,37.73818],[-122.37286,37.73833],[-122.37359,37.73879],[-122.37341,37.73966],[-122.36827,37.73983],[-122.36763,37.74013],[-122.37276,37.74551],[-122.37415,37.74499],[-122.37492,37.74575],[-122.37477,37.74639],[-122.37618,37.74715],[-122.38264,37.74716],[-122.39049,37.74669],[-122.39291,37.74744],[-122.39304,37.74845],[-122.39222,37.74848],[-122.39031,37.7477],[-122.38679,37.74789],[-122.38553,37.74811],[-122.37577,37.74871],[-122.37609,37.75225],[-122.37996,37.75203],[-122.38004,37.75292],[-122.38171,37.75319],[-122.39651,37.75231],[-122.39641,37.75118],[-122.39941,37.75099],[-122.40047,37.75067],[-122.40261,37.75056],[-122.40297,37.74955],[-122.40357,37.74947],[-122.4039,37.74843],[-122.40356,37.74776],[-122.40459,37.74413],[-122.40691,37.74076],[-122.40691,37.73797],[-122.40646,37.73551],[-122.4051,37.73372],[-122.4034,37.73066],[-122.40221,37.7281],[-122.40118,37.72459],[-122.39886,37.71868],[-122.39833,37.71626],[-122.39936,37.71427],[-122.40047,37.71312],[-122.40328,37.71182],[-122.40468,37.70993],[-122.40545,37.70835]]]},"properties":{"name":"Bayview Hunters Point"}},{"type":"Feature","geometry":{"type":"Polygon","coordinates":[[[-122.40691,37.73797],[-122.40691,37.74076],[-122.40459,37.74413],[-122.40356,37.74776],[-122.4039,37.74843],[-122.40357,37.74947],[-122.40378,37.74943],[-122.4086,37.7484],[-122.42139,37.74812],[-122.42133,37.74744],[-122.42229,37.74518],[-122.42329,37.74229],[-122.42405,37.74063],[-122.42449,37.73899],[-122.42508,37.73785],[-122.42666,37.73642],[-122.42857,37.73508],[-122.42611,37.73395],[-122.42804,37.73202],[-122.42556,37.73158],[-122.42392,37.73155],[-122.4217,37.73181],[-122.41946,37.73206],[-122.41666,37.73201],[-122.41439,37.73242],[-122.41208,37.73346],[-122.40995,37.73472],[-122.40849,37.73629],[-122.40822,37.73761],[-122.40691,37.73797]]]},"properties":{"name":"Bernal Heights"}},{"type":"Feature","geometry":{"type":"Polygon","coordinates":[[[-122.42561,37.75663],[-122.42575,37.75891],[-122.42671,37.76898],[-122.42631,37.7696],[-122.43157,37.76931],[-122.43711,37.76896],[-122.43834,37.76901],[-122.43882,37.7684],[-122.44014,37.76776],[-122.4406,37.76696],[-122.44201,37.76591],[-122.44257,37.76593],[-122.44401,37.76502],[-122.44466,37.76333],[-122.44569,37.76235],[-122.44678,37.76178],[-122.44641,37.76109],[-122.4464,37.75886],[-122.44792,37.75759],[-122.44695,37.75655],[-122.44503,37.75661],[-122.4447,37.75722],[-122.44298,37.75616],[-122.44227,37.75657],[-122.44218,37.75894],[-122.43917,37.75903],[-122.43886,37.75543],[-122.4378,37.75589],[-122.42561,37.75663]]]},"properties":{"name":"Castro/Upper Market"}},{"type":"Feature","geometry":{"type":"Polygon","coordinates":[[[-122.40204,37.79751],[-122.40551,37.79707],[-122.41291,37.80218],[-122.41228,37.7991],[-122.41136,37.79453],[-122.40972,37.79474],[-122.40917,37.79204],[-122.40754,37.79225],[-122.40442,37.79264],[-122.40461,37.79356],[-122.40015,37.79413],[-122.40086,37.79765],[-122.40204,37.79751]]]},"properties":{"name":"Chinatown"}},{"type":"Feature","geometry":{"type":"Polygon","coordinates":[[[-122.4217,37.73181],[-122.42392,37.73155],[-122.42556,37.73158],[-122.42804,37.73202],[-122.43281,37.72732],[-122.43721,37.72155],[-122.4419,37.71531],[-122.44553,37.71189],[-122.44893,37.71007],[-122.45398,37.70823],[-122.42933,37.70832],[-122.42808,37.70843],[-122.42377,37.70834],[-122.42335,37.70925],[-122.42455,37.7101],[-122.42551,37.71079],[-122.42674,37.71122],[-122.42555,37.71452],[-122.42731,37.71507],[-122.42639,37.71856],[-122.42455,37.72165],[-122.42485,37.72205],[-122.42381,37.72369],[-122.41987,37.72471],[-122.41791,37.72522],[-122.4184,37.72642],[-122.41446,37.72746],[-122.41519,37.72922],[-122.41664,37.72881],[-122.41954,37.72913],[-122.41927,37.73133],[-122.42018,37.73146],[-122.42175,37.73109],[-122.4217,37.73181]]]},"properties":{"name":"Excelsior"}},{"type":"Feature","geometry":{"type":"Polygon","coordinates":[[[-122.40059,37.80602],[-122.40227,37.80513],[-122.40517,37.80476],[-122.4048,37.8029],[-122.40316,37.8031],[-122.40204,37.79751],[-122.40086,37.79765],[-122.40015,37.79413],[-122.40461,37.79356],[-122.40442,37.79264],[-122.40754,37.79225],[-122.40715,37.79037],[-122.40879,37.79016],[-122.4084,37.78829],[-122.4077,37.7847],[-122.40734,37.78456],[-122.40583,37.78574],[-122.40271,37.78326],[-122.40047,37.78503],[-122.39275,37.77885],[-122.38939,37.78151],[-122.3881,37.78191],[-122.38753,37.78333],[-122.38624,37.78341],[-122.38629,37.78396],[-122.38771,37.78388],[-122.38767,37.7844],[-122.38541,37.78461],[-122.38546,37.78499],[-122.38763,37.78486],[-122.38722,37.78553],[-122.3844,37.7857],[-122.38456,37.7874],[-122.38741,37.78724],[-122.38738,37.78772],[-122.38517,37.7881],[-122.38528,37.78852],[-122.38705,37.78823],[-122.38719,37.78877],[-122.38515,37.78922],[-122.38537,37.78979],[-122.38735,37.78931],[-122.38761,37.78979],[-122.38569,37.79045],[-122.38574,37.79097],[-122.38808,37.79004],[-122.38881,37.79098],[-122.39172,37.79343],[-122.39194,37.79485],[-122.3912,37.79578],[-122.39159,37.79621],[-122.393,37.79556],[-122.39413,37.79686],[-122.39293,37.79794],[-122.39321,37.79825],[-122.39488,37.79726],[-122.39546,37.79755],[-122.39356,37.79863],[-122.39384,37.79894],[-122.39586,37.79787],[-122.39764,37.79984],[-122.39545,37.80114],[-122.39577,37.80147],[-122.39799,37.80023],[-122.39838,37.80067],[-122.39616,37.80192],[-122.39712,37.80302],[-122.39915,37.80189],[-122.39962,37.80228],[-122.39752,37.80346],[-122.39783,37.80381],[-122.3996,37.80281],[-122.39997,37.80323],[-122.39823,37.80425],[-122.39855,37.8046],[-122.40048,37.80347],[-122.40096,37.80356],[-122.40059,37.80602]]]},"properties":{"name":"Financial District/South Beach"}},{"type":"Feature","geometry":{"type":"Polygon","coordinates":[[[-122.42329,37.74229],[-122.43089,37.74183],[-122.43326,37.7419],[-122.43332,37.7433],[-122.43556,37.74316],[-122.43647,37.74289],[-122.43953,37.7448],[-122.44009,37.7453],[-122.44127,37.74523],[-122.44289,37.74384],[-122.44415,37.7433],[-122.44559,37.74391],[-122.44603,37.74513],[-122.4474,37.7466],[-122.45071,37.74593],[-122.45162,37.74553],[-122.44992,37.74327],[-122.44914,37.74283],[-122.44711,37.74258],[-122.44626,37.74207],[-122.44606,37.74127],[-122.44491,37.74087],[-122.44369,37.73997],[-122.44252,37.73945],[-122.44266,37.73712],[-122.44383,37.73613],[-122.44316,37.73569],[-122.44138,37.73586],[-122.44069,37.73507],[-122.43839,37.73442],[-122.4332,37.73344],[-122.43242,37.73318],[-122.42857,37.73508],[-122.42666,37.73642],[-122.42508,37.73785],[-122.42449,37.73899],[-122.42405,37.74063],[-122.42329,37.74229]]]},"properties":{"name":"Glen Park"}},{"type":"Feature","geometry":{"type":"Polygon","coordinates":[[[-122.45886,37.78126],[-122.45948,37.78971],[-122.46358,37.78881],[-122.47091,37.78722],[-122.47239,37.78714],[-122.47263,37.78632],[-122.47171,37.77324],[-122.47176,37.77314],[-122.46533,37.77342],[-122.46162,37.7739],[-122.45837,37.77431],[-122.45886,37.78126]]]},"properties":{"name":"Inner Richmond"}},{"type":"Feature","geometry":{"type":"Polygon","coordinates":[[[-122.44731,37.77188],[-122.44073,37.77271],[-122.44092,37.77363],[-122.4459,37.77299],[-122.45408,37.77193],[-122.45468,37.77476],[-122.46162,37.7739],[-122.46533,37.77342],[-122.48633,37.77247],[-122.51105,37.77134],[-122.51315,37.77076],[-122.51307,37.76708],[-122.51263,37.76563],[-122.51278,37.76436],[-122.51237,37.76359],[-122.51016,37.76408],[-122.50846,37.76411],[-122.49322,37.76478],[-122.49226,37.76478],[-122.49213,37.76482],[-122.48701,37.76506],[-122.48595,37.76511],[-122.48262,37.76521],[-122.48059,37.76534],[-122.4782,37.76545],[-122.4728,37.76569],[-122.46316,37.76611],[-122.45857,37.76622],[-122.45691,37.76587],[-122.45295,37.76637],[-122.4539,37.77105],[-122.44731,37.77188]]]},"properties":{"name":"Golden Gate Park"}},{"type":"Feature","geometry":{"type":"Polygon","coordinates":[[[-122.43157,37.76931],[-122.43247,37.77376],[-122.44073,37.77271],[-122.44731,37.77188],[-122.4539,37.77105],[-122.45295,37.76637],[-122.45196,37.76148],[-122.44678,37.76178],[-122.44569,37.76235],[-122.44466,37.76333],[-122.44401,37.76502],[-122.44257,37.76593],[-122.44201,37.76591],[-122.4406,37.76696],[-122.44014,37.76776],[-122.43882,37.7684],[-122.43834,37.76901],[-122.43711,37.76896],[-122.43157,37.76931]]]},"properties":{"name":"Haight Ashbury"}},{"type":"Feature","geometry":{"type":"Polygon","coordinates":[[[-122.42631,37.7696],[-122.42628,37.76968],[-122.41936,37.77513],[-122.41926,37.77515],[-122.42031,37.77992],[-122.42025,37.78007],[-122.42354,37.77967],[-122.42335,37.77875],[-122.44149,37.77644],[-122.44092,37.77363],[-122.44073,37.77271],[-122.43247,37.77376],[-122.43157,37.76931],[-122.42631,37.7696]]]},"properties":{"name":"Hayes Valley"}},{"type":"Feature","geometry":{"type":"Polygon","coordinates":[[[-122.45295,37.76637],[-122.45691,37.76587],[-122.45857,37.76622],[-122.46316,37.76611],[-122.4728,37.76569],[-122.47731,37.76545],[-122.47675,37.75995],[-122.47688,37.75972],[-122.4761,37.74876],[-122.47603,37.74865],[-122.46856,37.74894],[-122.46634,37.74907],[-122.46647,37.75094],[-122.46446,37.75087],[-122.46344,37.75119],[-122.46446,37.7529],[-122.46336,37.75304],[-122.46152,37.7515],[-122.46067,37.75181],[-122.45899,37.75195],[-122.45703,37.7514],[-122.456,37.75209],[-122.45603,37.75289],[-122.45518,37.75434],[-122.45403,37.75718],[-122.45283,37.7581],[-122.45093,37.75872],[-122.44854,37.75904],[-122.44792,37.75759],[-122.4464,37.75886],[-122.44641,37.76109],[-122.44678,37.76178],[-122.45196,37.76148],[-122.45295,37.76637]]]},"properties":{"name":"Inner Sunset"}},{"type":"Feature","geometry":{"type":"Polygon","coordinates":[[[-122.42906,37.78491],[-122.4249,37.78544],[-122.42505,37.78713],[-122.42667,37.78692],[-122.44318,37.78483],[-122.4427,37.78297],[-122.43894,37.78345],[-122.43775,37.7838],[-122.42906,37.78491]]]},"properties":{"name":"Japantown"}},{"type":"Feature","geometry":{"type":"Polygon","coordinates":[[[-122.41621,37.71453],[-122.4154,37.71547],[-122.41132,37.71437],[-122.41036,37.71669],[-122.40817,37.71616],[-122.40784,37.71692],[-122.40862,37.71712],[-122.40826,37.71809],[-122.40727,37.71782],[-122.40667,37.71921],[-122.4071,37.72009],[-122.41099,37.71907],[-122.41297,37.72386],[-122.41592,37.72309],[-122.41556,37.72223],[-122.41663,37.72216],[-122.41692,37.72282],[-122.41791,37.72263],[-122.41839,37.72377],[-122.41938,37.7235],[-122.41987,37.72471],[-122.42381,37.72369],[-122.42485,37.72205],[-122.42455,37.72165],[-122.42639,37.71856],[-122.42731,37.71507],[-122.42555,37.71452],[-122.42674,37.71122],[-122.42456,37.71017],[-122.42337,37.7103],[-122.42241,37.71097],[-122.42147,37.7122],[-122.42123,37.71331],[-122.42033,37.71397],[-122.41563,37.71273],[-122.41529,37.7135],[-122.41621,37.71453]]]},"properties":{"name":"McLaren Park"}},{"type":"Feature","geometry":{"type":"Polygon","coordinates":[[[-122.41926,37.77515],[-122.4187,37.77564],[-122.40742,37.78455],[-122.40734,37.78456],[-122.4077,37.7847],[-122.4084,37.78829],[-122.42157,37.78662],[-122.42055,37.78113],[-122.42025,37.78007],[-122.42031,37.77992],[-122.41926,37.77515]]]},"properties":{"name":"Tenderloin"}},{"type":"Feature","geometry":{"type":"Polygon","coordinates":[[[-122.47486,37.73107],[-122.48193,37.73117],[-122.48618,37.73088],[-122.48672,37.72959],[-122.48889,37.73026],[-122.49013,37.73],[-122.49101,37.72907],[-122.49193,37.7288],[-122.49347,37.7296],[-122.49569,37.72906],[-122.4967,37.72912],[-122.49735,37.72967],[-122.49823,37.73138],[-122.49811,37.73227],[-122.49676,37.73359],[-122.49861,37.73419],[-122.50118,37.73534],[-122.50256,37.73556],[-122.50515,37.73556],[-122.50854,37.7354],[-122.50827,37.73482],[-122.50805,37.72981],[-122.50766,37.72842],[-122.50652,37.72166],[-122.50612,37.72066],[-122.50604,37.71909],[-122.50553,37.7173],[-122.50462,37.71485],[-122.50399,37.71214],[-122.50361,37.71182],[-122.50278,37.70813],[-122.49778,37.70813],[-122.49358,37.70823],[-122.48538,37.70823],[-122.48378,37.70833],[-122.48108,37.70823],[-122.47132,37.70831],[-122.47126,37.71183],[-122.47147,37.71343],[-122.47263,37.71691],[-122.47257,37.71717],[-122.47523,37.71984],[-122.47505,37.72121],[-122.47463,37.72893],[-122.47486,37.73107]]]},"properties":{"name":"Lakeshore"}},{"type":"Feature","geometry":{"type":"Polygon","coordinates":[[[-122.49302,37.78774],[-122.4948,37.78783],[-122.49655,37.78729],[-122.49943,37.78846],[-122.5027,37.78804],[-122.50609,37.78817],[-122.50769,37.7865],[-122.50912,37.78559],[-122.50985,37.78479],[-122.50978,37.78403],[-122.50748,37.78219],[-122.50892,37.78201],[-122.51078,37.78206],[-122.50988,37.78063],[-122.50675,37.78077],[-122.50619,37.78103],[-122.49304,37.78165],[-122.49349,37.7835],[-122.49334,37.7874],[-122.49302,37.78774]]]},"properties":{"name":"Lincoln Park"}},{"type":"Feature","geometry":{"type":"Polygon","coordinates":[[[-122.44149,37.77644],[-122.44205,37.77924],[-122.44096,37.77936],[-122.44151,37.7821],[-122.44279,37.78289],[-122.44571,37.78252],[-122.44737,37.78256],[-122.45563,37.78149],[-122.45886,37.78126],[-122.45837,37.77431],[-122.45468,37.77476],[-122.45408,37.77193],[-122.4459,37.77299],[-122.44092,37.77363],[-122.44149,37.77644]]]},"properties":{"name":"Lone Mountain/USF"}},{"type":"Feature","geometry":{"type":"Polygon","coordinates":[[[-122.42662,37.80889],[-122.42662,37.80891],[-122.42661,37.8091],[-122.42661,37.80911],[-122.42654,37.80944],[-122.42653,37.80944],[-122.42649,37.80957],[-122.42663,37.80974],[-122.42672,37.80817],[-122.42824,37.80841],[-122.42984,37.80783],[-122.43011,37.80922],[-122.43062,37.80917],[-122.4303,37.80746],[-122.431,37.80737],[-122.43134,37.80906],[-122.43173,37.80902],[-122.43139,37.80731],[-122.43208,37.80722],[-122.4322,37.80624],[-122.43273,37.80572],[-122.43385,37.80572],[-122.43442,37.80704],[-122.43553,37.80692],[-122.43586,37.80769],[-122.43715,37.80741],[-122.44224,37.80684],[-122.44243,37.80605],[-122.44599,37.80561],[-122.44677,37.80541],[-122.447,37.80653],[-122.44523,37.80699],[-122.44527,37.80763],[-122.44718,37.80748],[-122.44813,37.80689],[-122.44849,37.80609],[-122.44824,37.80448],[-122.44939,37.80371],[-122.44946,37.80245],[-122.4488,37.80177],[-122.44782,37.80163],[-122.44673,37.79471],[-122.43695,37.79595],[-122.43676,37.79502],[-122.4236,37.79669],[-122.42373,37.79677],[-122.42538,37.80497],[-122.42549,37.80601],[-122.42626,37.80719],[-122.42647,37.80807],[-122.42649,37.80816],[-122.4265,37.80816],[-122.42652,37.80815],[-122.42654,37.8083],[-122.4266,37.80862],[-122.4266,37.80864],[-122.42662,37.80882],[-122.42664,37.80879],[-122.42662,37.80889]]]},"properties":{"name":"Marina"}},{"type":"Feature","geometry":{"type":"MultiPolygon","coordinates":[[[[-122.41922,37.80845],[-122.42106,37.80856],[-122.42281,37.80712],[-122.42371,37.80667],[-122.42497,37.80673],[-122.42629,37.80755],[-122.42647,37.80807],[-122.42626,37.80719],[-122.42549,37.80601],[-122.42538,37.80497],[-122.42373,37.79677],[-122.4236,37.79669],[-122.42369,37.79658],[-122.42282,37.79226],[-122.42269,37.79217],[-122.41611,37.79301],[-122.41722,37.79847],[-122.41228,37.7991],[-122.41291,37.80218],[-122.41838,37.80598],[-122.41872,37.80593],[-122.41922,37.80845]]],[[[-122.42649,37.80957],[-122.42598,37.81024],[-122.4249,37.81079],[-122.42506,37.81078],[-122.42506,37.81078],[-122.42521,37.81076],[-122.42523,37.81075],[-122.42556,37.81066],[-122.42557,37.81066],[-122.42573,37.81059],[-122.42574,37.81059],[-122.426,37.81045],[-122.42601,37.81044],[-122.42615,37.81034],[-122.42622,37.81027],[-122.42622,37.81027],[-122.42622,37.81027],[-122.42652,37.80991],[-122.42653,37.8099],[-122.42662,37.80975],[-122.42663,37.80974],[-122.42649,37.80957]]]]},"properties":{"name":"Russian Hill"}},{"type":"Feature","geometry":{"type":"Polygon","coordinates":[[[-122.40499,37.76971],[-122.40621,37.76946],[-122.407,37.77005],[-122.40801,37.76924],[-122.40974,37.77035],[-122.41093,37.76941],[-122.41866,37.77556],[-122.4187,37.77564],[-122.41926,37.77515],[-122.41936,37.77513],[-122.42628,37.76968],[-122.42631,37.7696],[-122.42671,37.76898],[-122.42575,37.75891],[-122.42561,37.75663],[-122.42553,37.75655],[-122.42477,37.74875],[-122.42477,37.74783],[-122.42139,37.74812],[-122.4086,37.7484],[-122.40378,37.74943],[-122.40331,37.75089],[-122.40298,37.75275],[-122.40325,37.75576],[-122.40354,37.7568],[-122.40554,37.75854],[-122.40649,37.76025],[-122.40628,37.76139],[-122.40538,37.76297],[-122.40509,37.76463],[-122.4045,37.76466],[-122.40462,37.76596],[-122.40499,37.76971]]]},"properties":{"name":"Mission"}},{"type":"Feature","geometry":{"type":"Polygon","coordinates":[[[-122.3891,37.7669],[-122.38816,37.76696],[-122.38792,37.76438],[-122.38662,37.76567],[-122.38502,37.76886],[-122.38557,37.77018],[-122.38338,37.76933],[-122.38316,37.76971],[-122.38556,37.77064],[-122.38646,37.77168],[-122.38676,37.77327],[-122.38467,37.77334],[-122.38146,37.77192],[-122.38181,37.77462],[-122.38692,37.77433],[-122.387,37.77508],[-122.38488,37.77533],[-122.38503,37.77634],[-122.38708,37.7761],[-122.38768,37.77672],[-122.38982,37.77659],[-122.39041,37.77714],[-122.38734,37.77836],[-122.38763,37.78145],[-122.38552,37.78158],[-122.38556,37.78194],[-122.38775,37.7818],[-122.38751,37.78235],[-122.38624,37.78286],[-122.38763,37.78282],[-122.3881,37.78191],[-122.38939,37.78151],[-122.39721,37.77533],[-122.39876,37.77657],[-122.40091,37.77486],[-122.39943,37.77357],[-122.40388,37.77006],[-122.40499,37.76971],[-122.40462,37.76596],[-122.4045,37.76466],[-122.39385,37.76531],[-122.39392,37.76607],[-122.39397,37.76661],[-122.3891,37.7669]]]},"properties":{"name":"Mission Bay"}},{"type":"Feature","geometry":{"type":"Polygon","coordinates":[[[-122.40754,37.79225],[-122.40917,37.79204],[-122.40972,37.79474],[-122.41136,37.79453],[-122.41228,37.7991],[-122.41722,37.79847],[-122.41611,37.79301],[-122.42269,37.79217],[-122.42233,37.79037],[-122.42157,37.78662],[-122.4084,37.78829],[-122.40879,37.79016],[-122.40715,37.79037],[-122.40754,37.79225]]]},"properties":{"name":"Nob Hill"}},{"type":"Feature","geometry":{"type":"Polygon","coordinates":[[[-122.47235,37.78723],[-122.47555,37.78678],[-122.47878,37.7869],[-122.47985,37.7868],[-122.4838,37.78774],[-122.48453,37.78922],[-122.48543,37.78982],[-122.48594,37.79084],[-122.48737,37.78943],[-122.48899,37.78928],[-122.48983,37.78948],[-122.49086,37.78855],[-122.49212,37.78788],[-122.49302,37.78774],[-122.49334,37.7874],[-122.49349,37.7835],[-122.48715,37.78378],[-122.48729,37.78565],[-122.47263,37.78632],[-122.47239,37.78714],[-122.47235,37.78723]]]},"properties":{"name":"Seacliff"}},{"type":"Feature","geometry":{"type":"Polygon","coordinates":[[[-122.42139,37.74812],[-122.42477,37.74783],[-122.42477,37.74875],[-122.42553,37.75655],[-122.42561,37.75663],[-122.4378,37.75589],[-122.43886,37.75543],[-122.44035,37.75523],[-122.44253,37.75238],[-122.44285,37.75237],[-122.44355,37.74944],[-122.44427,37.74838],[-122.44443,37.74717],[-122.4474,37.7466],[-122.44603,37.74513],[-122.44559,37.74391],[-122.44415,37.7433],[-122.44289,37.74384],[-122.44127,37.74523],[-122.44009,37.7453],[-122.43953,37.7448],[-122.43647,37.74289],[-122.43556,37.74316],[-122.43332,37.7433],[-122.43326,37.7419],[-122.43089,37.74183],[-122.42329,37.74229],[-122.42229,37.74518],[-122.42133,37.74744],[-122.42139,37.74812]]]},"properties":{"name":"Noe Valley"}},{"type":"Feature","geometry":{"type":"Polygon","coordinates":[[[-122.40059,37.80602],[-122.4004,37.80726],[-122.40095,37.80763],[-122.4028,37.80602],[-122.40342,37.80647],[-122.40235,37.80778],[-122.40277,37.80801],[-122.40396,37.80658],[-122.40472,37.80697],[-122.40391,37.80871],[-122.4044,37.80885],[-122.40532,37.80687],[-122.4059,37.80716],[-122.40612,37.81002],[-122.40682,37.81],[-122.40664,37.80782],[-122.40939,37.80872],[-122.41018,37.8101],[-122.41015,37.81151],[-122.41132,37.81094],[-122.41044,37.80933],[-122.41125,37.80892],[-122.41189,37.80939],[-122.41262,37.80908],[-122.41478,37.80937],[-122.41535,37.80916],[-122.41885,37.81147],[-122.41922,37.81089],[-122.41741,37.80917],[-122.41619,37.80885],[-122.41635,37.80826],[-122.41734,37.80814],[-122.4179,37.80903],[-122.41994,37.80913],[-122.41922,37.80845],[-122.41872,37.80593],[-122.41838,37.80598],[-122.41291,37.80218],[-122.40551,37.79707],[-122.40204,37.79751],[-122.40316,37.8031],[-122.4048,37.8029],[-122.40517,37.80476],[-122.40227,37.80513],[-122.40059,37.80602]]]},"properties":{"name":"North Beach"}},{"type":"Feature","geometry":{"type":"Polygon","coordinates":[[[-122.44788,37.723],[-122.45171,37.72305],[-122.45416,37.7235],[-122.46128,37.725],[-122.46228,37.72515],[-122.46227,37.7217],[-122.47232,37.72162],[-122.47245,37.72145],[-122.47265,37.7177],[-122.47257,37.71717],[-122.47263,37.71691],[-122.47147,37.71343],[-122.47126,37.71183],[-122.47132,37.70831],[-122.46894,37.70823],[-122.46772,37.70928],[-122.46599,37.71015],[-122.46418,37.71055],[-122.45831,37.7106],[-122.45634,37.71083],[-122.45503,37.71132],[-122.45295,37.71277],[-122.45023,37.71513],[-122.44921,37.71631],[-122.44869,37.7176],[-122.44812,37.722],[-122.44788,37.723]]]},"properties":{"name":"Oceanview/Merced/Ingleside"}},{"type":"Feature","geometry":{"type":"Polygon","coordinates":[[[-122.39275,37.77885],[-122.40047,37.78503],[-122.40271,37.78326],[-122.40583,37.78574],[-122.40734,37.78456],[-122.40742,37.78455],[-122.4187,37.77564],[-122.41866,37.77556],[-122.41093,37.76941],[-122.40974,37.77035],[-122.40801,37.76924],[-122.407,37.77005],[-122.40621,37.76946],[-122.40499,37.76971],[-122.40388,37.77006],[-122.39943,37.77357],[-122.40091,37.77486],[-122.39876,37.77657],[-122.39721,37.77533],[-122.39275,37.77885]]]},"properties":{"name":"South of Market"}},{"type":"Feature","geometry":{"type":"Polygon","coordinates":[[[-122.47731,37.76545],[-122.4782,37.76545],[-122.48059,37.76534],[-122.48262,37.76521],[-122.48595,37.76511],[-122.48701,37.76506],[-122.49213,37.76482],[-122.49226,37.76478],[-122.49322,37.76478],[-122.50846,37.76411],[-122.51016,37.76408],[-122.51237,37.76359],[-122.51247,37.76252],[-122.51187,37.76097],[-122.51195,37.75979],[-122.51154,37.75698],[-122.51113,37.7552],[-122.51129,37.75412],[-122.51103,37.75256],[-122.51056,37.75167],[-122.51046,37.75043],[-122.50971,37.74908],[-122.50982,37.74797],[-122.50934,37.74594],[-122.50968,37.7445],[-122.50905,37.74246],[-122.50925,37.74134],[-122.50873,37.74031],[-122.50889,37.739],[-122.50845,37.73632],[-122.50854,37.7354],[-122.50515,37.73556],[-122.50256,37.73556],[-122.50118,37.73534],[-122.49861,37.73419],[-122.49676,37.73359],[-122.49811,37.73227],[-122.49823,37.73138],[-122.49735,37.72967],[-122.4967,37.72912],[-122.49569,37.72906],[-122.49347,37.7296],[-122.49193,37.7288],[-122.49101,37.72907],[-122.49013,37.73],[-122.48889,37.73026],[-122.48672,37.72959],[-122.48618,37.73088],[-122.48193,37.73117],[-122.47486,37.73107],[-122.47493,37.73118],[-122.47609,37.74854],[-122.47603,37.74865],[-122.4761,37.74876],[-122.47688,37.75972],[-122.47675,37.75995],[-122.47731,37.76545]]]},"properties":{"name":"Sunset/Parkside"}},{"type":"Feature","geometry":{"type":"Polygon","coordinates":[[[-122.45398,37.70823],[-122.44893,37.71007],[-122.44553,37.71189],[-122.4419,37.71531],[-122.43721,37.72155],[-122.43281,37.72732],[-122.42804,37.73202],[-122.42611,37.73395],[-122.42857,37.73508],[-122.43242,37.73318],[-122.43645,37.73133],[-122.43956,37.73019],[-122.44379,37.72823],[-122.44504,37.7273],[-122.44631,37.72598],[-122.44759,37.72388],[-122.44788,37.723],[-122.44812,37.722],[-122.44869,37.7176],[-122.44921,37.71631],[-122.45023,37.71513],[-122.45295,37.71277],[-122.45503,37.71132],[-122.45634,37.71083],[-122.45831,37.7106],[-122.46418,37.71055],[-122.46599,37.71015],[-122.46772,37.70928],[-122.46894,37.70823],[-122.45398,37.70823]]]},"properties":{"name":"Outer Mission"}},{"type":"Feature","geometry":{"type":"Polygon","coordinates":[[[-122.47176,37.77314],[-122.47171,37.77324],[-122.47263,37.78632],[-122.48729,37.78565],[-122.48715,37.78378],[-122.49349,37.7835],[-122.49304,37.78165],[-122.50619,37.78103],[-122.50675,37.78077],[-122.50988,37.78063],[-122.51078,37.78206],[-122.50892,37.78201],[-122.50748,37.78219],[-122.51075,37.78467],[-122.51281,37.78348],[-122.51388,37.78161],[-122.51472,37.78113],[-122.51447,37.7806],[-122.51463,37.77851],[-122.51335,37.77733],[-122.51312,37.77599],[-122.51315,37.77076],[-122.51105,37.77134],[-122.48633,37.77247],[-122.47176,37.77314]]]},"properties":{"name":"Outer Richmond"}},{"type":"Feature","geometry":{"type":"Polygon","coordinates":[[[-122.42269,37.79217],[-122.42282,37.79226],[-122.42369,37.79658],[-122.4236,37.79669],[-122.43676,37.79502],[-122.43695,37.79595],[-122.44673,37.79471],[-122.4463,37.79188],[-122.4454,37.78744],[-122.44375,37.78765],[-122.44318,37.78483],[-122.42667,37.78692],[-122.42505,37.78713],[-122.42562,37.78995],[-122.42233,37.79037],[-122.42269,37.79217]]]},"properties":{"name":"Pacific Heights"}},{"type":"Feature","geometry":{"type":"Polygon","coordinates":[[[-122.39886,37.71868],[-122.40118,37.72459],[-122.40221,37.7281],[-122.4034,37.73066],[-122.4051,37.73372],[-122.40646,37.73551],[-122.40691,37.73797],[-122.40822,37.73761],[-122.40849,37.73629],[-122.40995,37.73472],[-122.41208,37.73346],[-122.41439,37.73242],[-122.41666,37.73201],[-122.41946,37.73206],[-122.4217,37.73181],[-122.42175,37.73109],[-122.42018,37.73146],[-122.41927,37.73133],[-122.41954,37.72913],[-122.41664,37.72881],[-122.41519,37.72922],[-122.41446,37.72746],[-122.4184,37.72642],[-122.41791,37.72522],[-122.41987,37.72471],[-122.41938,37.7235],[-122.41839,37.72377],[-122.41791,37.72263],[-122.41692,37.72282],[-122.41663,37.72216],[-122.41556,37.72223],[-122.41592,37.72309],[-122.41297,37.72386],[-122.41099,37.71907],[-122.4071,37.72009],[-122.40667,37.71921],[-122.4061,37.71984],[-122.40385,37.71883],[-122.40355,37.71834],[-122.40044,37.71916],[-122.39983,37.71665],[-122.39886,37.71868]]]},"properties":{"name":"Portola"}},{"type":"Feature","geometry":{"type":"Polygon","coordinates":[[[-122.38171,37.75319],[-122.38287,37.75364],[-122.38334,37.75473],[-122.38077,37.75523],[-122.38124,37.75589],[-122.38143,37.75774],[-122.38126,37.75967],[-122.3792,37.75994],[-122.37953,37.76347],[-122.37981,37.76346],[-122.37951,37.76025],[-122.3804,37.7602],[-122.3807,37.76334],[-122.38091,37.76334],[-122.38061,37.76019],[-122.38115,37.76016],[-122.38134,37.76215],[-122.38184,37.76212],[-122.382,37.76064],[-122.38331,37.76208],[-122.38103,37.76222],[-122.38098,37.7648],[-122.38169,37.76474],[-122.38175,37.76241],[-122.38311,37.76232],[-122.3833,37.76414],[-122.38391,37.76414],[-122.38374,37.76254],[-122.3851,37.76232],[-122.38518,37.76337],[-122.38698,37.76365],[-122.38645,37.7644],[-122.38652,37.76541],[-122.38586,37.7666],[-122.3828,37.76678],[-122.38286,37.76714],[-122.38485,37.76701],[-122.38582,37.76726],[-122.38662,37.76567],[-122.38792,37.76438],[-122.38816,37.76696],[-122.3891,37.7669],[-122.39397,37.76661],[-122.39392,37.76607],[-122.39385,37.76531],[-122.4045,37.76466],[-122.40509,37.76463],[-122.40538,37.76297],[-122.40628,37.76139],[-122.40649,37.76025],[-122.40554,37.75854],[-122.40354,37.7568],[-122.40325,37.75576],[-122.40298,37.75275],[-122.40331,37.75089],[-122.40378,37.74943],[-122.40357,37.74947],[-122.40297,37.74955],[-122.40261,37.75056],[-122.40047,37.75067],[-122.39941,37.75099],[-122.39641,37.75118],[-122.39651,37.75231],[-122.38171,37.75319]]]},"properties":{"name":"Potrero Hill"}},{"type":"Feature","geometry":{"type":"Polygon","coordinates":[[[-122.44939,37.80371],[-122.44824,37.80448],[-122.44849,37.80609],[-122.4493,37.80684],[-122.45165,37.80635],[-122.4533,37.80626],[-122.45448,37.80647],[-122.45837,37.80549],[-122.4619,37.80493],[-122.46358,37.80488],[-122.4672,37.80601],[-122.46887,37.80707],[-122.4693,37.80773],[-122.47054,37.80858],[-122.47225,37.80897],[-122.4748,37.80918],[-122.47605,37.80964],[-122.4764,37.81076],[-122.47774,37.81094],[-122.47798,37.81054],[-122.4779,37.80845],[-122.47841,37.80809],[-122.47873,37.80549],[-122.4799,37.8029],[-122.4802,37.80142],[-122.48097,37.80033],[-122.48218,37.79783],[-122.48352,37.79473],[-122.48359,37.79404],[-122.48436,37.79274],[-122.48594,37.79084],[-122.48543,37.78982],[-122.48453,37.78922],[-122.4838,37.78774],[-122.47985,37.7868],[-122.47878,37.7869],[-122.47555,37.78678],[-122.47235,37.78723],[-122.47091,37.78722],[-122.46358,37.78881],[-122.44943,37.79164],[-122.4463,37.79188],[-122.44782,37.80163],[-122.4488,37.80177],[-122.44946,37.80245],[-122.44939,37.80371]]]},"properties":{"name":"Presidio"}},{"type":"Feature","geometry":{"type":"Polygon","coordinates":[[[-122.4463,37.79188],[-122.44943,37.79164],[-122.45903,37.78972],[-122.45948,37.78971],[-122.45886,37.78126],[-122.45563,37.78149],[-122.44737,37.78256],[-122.44571,37.78252],[-122.44279,37.78289],[-122.44318,37.78483],[-122.44375,37.78765],[-122.4454,37.78744],[-122.4463,37.79188]]]},"properties":{"name":"Presidio Heights"}},{"type":"Feature","geometry":{"type":"Polygon","coordinates":[[[-122.36358,37.82087],[-122.36284,37.82259],[-122.36744,37.82949],[-122.36862,37.83115],[-122.37313,37.83225],[-122.37332,37.8324],[-122.37769,37.83044],[-122.37912,37.82678],[-122.37886,37.82627],[-122.37147,37.81526],[-122.37125,37.81444],[-122.37177,37.81357],[-122.37186,37.81211],[-122.37282,37.81077],[-122.37169,37.80949],[-122.3703,37.80863],[-122.36779,37.80788],[-122.36725,37.80739],[-122.3658,37.80761],[-122.36322,37.80748],[-122.36189,37.80708],[-122.36097,37.80809],[-122.3613,37.8109],[-122.36104,37.81247],[-122.35928,37.81344],[-122.35887,37.8144],[-122.35938,37.81504],[-122.36175,37.81446],[-122.36208,37.81415],[-122.3639,37.81408],[-122.36501,37.81329],[-122.367,37.81235],[-122.36877,37.8127],[-122.3698,37.8134],[-122.37038,37.81423],[-122.37102,37.816],[-122.36509,37.81846],[-122.36436,37.81868],[-122.36364,37.82054],[-122.36058,37.8198],[-122.36046,37.82012],[-122.36358,37.82087]]]},"properties":{"name":"Treasure Island"}},{"type":"Feature","geometry":{"type":"Polygon","coordinates":[[[-122.43886,37.75543],[-122.43917,37.75903],[-122.44218,37.75894],[-122.44227,37.75657],[-122.44298,37.75616],[-122.4447,37.75722],[-122.44503,37.75661],[-122.44695,37.75655],[-122.44792,37.75759],[-122.44854,37.75904],[-122.45093,37.75872],[-122.45283,37.7581],[-122.45403,37.75718],[-122.45518,37.75434],[-122.45603,37.75289],[-122.456,37.75209],[-122.45703,37.7514],[-122.45899,37.75195],[-122.46067,37.75181],[-122.46152,37.7515],[-122.46055,37.74994],[-122.45866,37.74804],[-122.45903,37.74726],[-122.45791,37.74686],[-122.45482,37.74622],[-122.45364,37.7457],[-122.45162,37.74553],[-122.45071,37.74593],[-122.4474,37.7466],[-122.44443,37.74717],[-122.44427,37.74838],[-122.44355,37.74944],[-122.44285,37.75237],[-122.44253,37.75238],[-122.44035,37.75523],[-122.43886,37.75543]]]},"properties":{"name":"Twin Peaks"}},{"type":"Feature","geometry":{"type":"Polygon","coordinates":[[[-122.39886,37.71868],[-122.39983,37.71665],[-122.40044,37.71916],[-122.40355,37.71834],[-122.40385,37.71883],[-122.4061,37.71984],[-122.40667,37.71921],[-122.40727,37.71782],[-122.40826,37.71809],[-122.40862,37.71712],[-122.40784,37.71692],[-122.40817,37.71616],[-122.41036,37.71669],[-122.41132,37.71437],[-122.4154,37.71547],[-122.41621,37.71453],[-122.41529,37.7135],[-122.41563,37.71273],[-122.42033,37.71397],[-122.42123,37.71331],[-122.42147,37.7122],[-122.42196,37.71202],[-122.42281,37.71051],[-122.42455,37.7101],[-122.42335,37.70925],[-122.42377,37.70834],[-122.40811,37.70833],[-122.40545,37.70835],[-122.40468,37.70993],[-122.40328,37.71182],[-122.40047,37.71312],[-122.39936,37.71427],[-122.39833,37.71626],[-122.39886,37.71868]]]},"properties":{"name":"Visitacion Valley"}},{"type":"Feature","geometry":{"type":"Polygon","coordinates":[[[-122.45162,37.74553],[-122.45364,37.7457],[-122.45482,37.74622],[-122.45791,37.74686],[-122.45903,37.74726],[-122.45866,37.74804],[-122.46055,37.74994],[-122.46152,37.7515],[-122.46336,37.75304],[-122.46446,37.7529],[-122.46344,37.75119],[-122.46446,37.75087],[-122.46647,37.75094],[-122.46634,37.74907],[-122.46856,37.74894],[-122.47603,37.74865],[-122.47609,37.74854],[-122.47493,37.73118],[-122.47486,37.73107],[-122.47463,37.72893],[-122.47505,37.72121],[-122.47523,37.71984],[-122.47257,37.71717],[-122.47265,37.7177],[-122.47245,37.72145],[-122.47232,37.72162],[-122.46227,37.7217],[-122.46228,37.72515],[-122.46128,37.725],[-122.45416,37.7235],[-122.45171,37.72305],[-122.44788,37.723],[-122.44759,37.72388],[-122.44631,37.72598],[-122.44504,37.7273],[-122.44379,37.72823],[-122.43956,37.73019],[-122.43645,37.73133],[-122.43242,37.73318],[-122.4332,37.73344],[-122.43839,37.73442],[-122.44069,37.73507],[-122.44138,37.73586],[-122.44316,37.73569],[-122.44383,37.73613],[-122.44266,37.73712],[-122.44252,37.73945],[-122.44369,37.73997],[-122.44491,37.74087],[-122.44606,37.74127],[-122.44626,37.74207],[-122.44711,37.74258],[-122.44914,37.74283],[-122.44992,37.74327],[-122.45162,37.74553]]]},"properties":{"name":"West of Twin Peaks"}},{"type":"Feature","geometry":{"type":"Polygon","coordinates":[[[-122.42025,37.78007],[-122.42055,37.78113],[-122.42157,37.78662],[-122.42233,37.79037],[-122.42562,37.78995],[-122.42505,37.78713],[-122.4249,37.78544],[-122.42906,37.78491],[-122.43775,37.7838],[-122.43894,37.78345],[-122.44279,37.78289],[-122.44151,37.7821],[-122.44096,37.77936],[-122.44205,37.77924],[-122.44149,37.77644],[-122.42335,37.77875],[-122.42354,37.77967],[-122.42025,37.78007]]]},"properties":{"name":"Western Addition"}}]}